NORAD_CAT_ID,OBJECT_NAME,OBJECT_TYPE,EPOCH,MEAN_MOTION,ECCENTRICITY,INCLINATION,RA_OF_ASC_NODE,ARG_OF_PERICENTER,MEAN_ANOMALY,BSTAR,MEAN_MOTION_DOT,MEAN_MOTION_DDOT,TLE_LINE0,TLE_LINE1,TLE_LINE2,SEMIMAJOR_AXIS,PERIOD,APOGEE,PERIGEE,DECAYED
53170.0,STARLINK-4095,PAYLOAD,2023-10-18 22:32:24,15.08844851,0.0001367,53.2158,117.0016,79.3784,280.7362,0.00011425,1.531e-05,0.0,0 STARLINK-4095,1 53170U 22083AQ  23291.93917582  .00001531  00000-0  11425-3 0  9998,2 53170  53.2158 117.0016 0001367  79.3784 280.7362 15.08844851 69673,6917.866,95.437,540.676,538.785,0.0
53170.0,STARLINK-4095,PAYLOAD,2023-10-19 12:50:52,15.0884645,0.000158,53.2149,114.3264,85.0755,275.0417,0.00021044,3.063e-05,0.0,0 STARLINK-4095,1 53170U 22083AQ  23292.53533519  .00003063  00000-0  21044-3 0  9999,2 53170  53.2149 114.3264 0001580  85.0755 275.0417 15.08846450 69762,6917.861,95.437,540.819,538.633,0.0
53170.0,STARLINK-4095,PAYLOAD,2023-10-19 20:47:48,15.08857361,0.0001403,53.2158,112.839,80.8823,279.2328,0.00050959,7.835e-05,0.0,0 STARLINK-4095,1 53170U 22083AQ  23292.86653103  .00007835  00000-0  50959-3 0  9995,2 53170  53.2158 112.8390 0001403  80.8823 279.2328 15.08857361 70445,6917.827,95.436,540.663,538.722,0.0
53170.0,STARLINK-4095,PAYLOAD,2023-10-19 22:23:11,15.08858609,0.0001379,53.216,112.5416,81.1047,279.0101,0.00054117,8.34e-05,0.0,0 STARLINK-4095,1 53170U 22083AQ  23292.93277039  .00008340  00000-0  54117-3 0  9995,2 53170  53.2160 112.5416 0001379  81.1047 279.0101 15.08858609 69821,6917.824,95.436,540.642,538.735,0.0
53170.0,STARLINK-4095,PAYLOAD,2023-10-20 12:41:40,15.08836618,0.0001324,53.2161,109.8653,84.8091,275.3052,-7.7533e-05,-1.522e-05,0.0,0 STARLINK-4095,1 53170U 22083AQ  23293.52893581 -.00001522  00000-0 -77533-4 0  9992,2 53170  53.2161 109.8653 0001324  84.8091 275.3052 15.08836618 70544,6917.891,95.438,540.672,538.84,0.0
53170.0,STARLINK-4095,PAYLOAD,2023-10-20 20:38:35,15.08840069,0.0001303,53.2166,108.3791,90.8861,269.228,0.00022189,3.245e-05,0.0,0 STARLINK-4095,1 53170U 22083AQ  23293.86013549  .00003245  00000-0  22189-3 0  9995,2 53170  53.2166 108.3791 0001303  90.8861 269.2280 15.08840069 69969,6917.88,95.438,540.647,538.844,0.0
53170.0,STARLINK-4095,PAYLOAD,2023-10-20 22:13:58,15.08841298,0.0001321,53.2164,108.0817,88.4511,271.6632,0.00033969,5.123e-05,0.0,0 STARLINK-4095,1 53170U 22083AQ  23293.92637551  .00005123  00000-0  33969-3 0  9992,2 53170  53.2164 108.0817 0001321  88.4511 271.6632 15.08841298 70604,6917.876,95.437,540.655,538.828,0.0
53170.0,STARLINK-4095,PAYLOAD,2023-10-21 20:29:22,15.08847931,0.0001314,53.2163,103.9186,92.6857,267.4286,0.00047525,7.285e-05,0.0,0 STARLINK-4095,1 53170U 22083AQ  23294.85373521  .00007285  00000-0  47525-3 0  9993,2 53170  53.2163 103.9186 0001314  92.6857 267.4286 15.08847931 70112,6917.856,95.437,540.63,538.812,0.0
53170.0,STARLINK-4095,PAYLOAD,2023-10-22 04:26:18,15.08841509,0.0001646,53.2162,102.4318,93.6307,266.4873,-4.9118e-05,-1.07e-05,0.0,0 STARLINK-4095,1 53170U 22083AQ  23295.18493928 -.00001070  00000-0 -49118-4 0  9993,2 53170  53.2162 102.4318 0001646  93.6307 266.4873 15.08841509 70791,6917.876,95.437,540.879,538.602,0.0
53170.0,STARLINK-4095,PAYLOAD,2023-10-22 18:44:47,15.08835348,0.000134,53.2163,99.7551,93.4753,266.6392,5.7645e-05,6.3e-06,0.0,0 STARLINK-4095,1 53170U 22083AQ  23295.78110125  .00000630  00000-0  57645-4 0  9997,2 53170  53.2163  99.7551 0001340  93.4753 266.6392 15.08835348 70256,6917.895,95.438,540.687,538.833,0.0
53170.0,STARLINK-4095,PAYLOAD,2023-10-23 10:38:38,15.08847382,0.000131,53.2164,96.781,93.6299,266.4843,0.00019555,2.826e-05,0.0,0 STARLINK-4095,1 53170U 22083AQ  23296.44349664  .00002826  00000-0  19555-3 0  9999,2 53170  53.2164  96.7810 0001310  93.6299 266.4843 15.08847382 70986,6917.858,95.437,540.629,538.817,0.0
53170.0,STARLINK-4095,PAYLOAD,2023-10-23 17:00:09,15.08855511,0.0001355,53.2175,95.5916,92.7754,267.3393,0.00013168,1.809e-05,0.0,0 STARLINK-4095,1 53170U 22083AQ  23296.70844829  .00001809  00000-0  13168-3 0  9995,2 53170  53.2175  95.5916 0001355  92.7754 267.3393 15.08855511 71026,6917.833,95.437,540.635,538.761,0.0
53170.0,STARLINK-4095,PAYLOAD,2023-10-23 21:46:18,15.08859938,0.0001546,53.2175,94.7,77.172,282.9445,0.00016665,2.367e-05,0.0,0 STARLINK-4095,1 53170U 22083AQ  23296.90716419  .00002367  00000-0  16665-3 0  9995,2 53170  53.2175  94.7000 0001546  77.1720 282.9445 15.08859938 70424,6917.819,95.436,540.754,538.615,0.0
53170.0,STARLINK-4095,PAYLOAD,2023-10-24 10:29:25,15.08830485,0.000131,53.2176,92.3201,97.058,263.0561,5.9253e-05,6.55e-06,0.0,0 STARLINK-4095,1 53170U 22083AQ  23297.43710550  .00000655  00000-0  59253-4 0  9993,2 53170  53.2176  92.3201 0001310  97.0580 263.0561 15.08830485 71130,6917.909,95.438,540.681,538.868,0.0
53170.0,STARLINK-4095,PAYLOAD,2023-10-25 15:06:21,15.08844859,0.0001407,53.218,86.9695,90.0171,270.0983,2.0617e-05,4e-07,0.0,0 STARLINK-4095,1 53170U 22083AQ  23298.62941939  .00000040  00000-0  20617-4 0  9992,2 53170  53.2180  86.9695 0001407  90.0171 270.0983 15.08844859 71313,6917.866,95.437,540.704,538.757,0.0
53170.0,STARLINK-4095,PAYLOAD,2023-10-26 13:21:46,15.08833933,0.0001313,53.2182,82.8069,92.0772,268.0371,0.00010388,1.365e-05,0.0,0 STARLINK-4095,1 53170U 22083AQ  23299.55678649  .00001365  00000-0  10388-3 0  9994,2 53170  53.2182  82.8069 0001313  92.0772 268.0371 15.08833933 70824,6917.899,95.438,540.672,538.856,0.0
53170.0,STARLINK-4095,PAYLOAD,2023-10-26 16:32:32,15.08838058,0.0001351,53.2178,82.211,93.7238,266.3908,0.00013238,1.819e-05,0.0,0 STARLINK-4095,1 53170U 22083AQ  23299.68926326  .00001819  00000-0  13238-3 0  9997,2 53170  53.2178  82.2110 0001351  93.7238 266.3908 15.08838058 71479,6917.886,95.438,540.686,538.817,0.0
53170.0,STARLINK-4095,PAYLOAD,2023-10-27 11:37:09,15.08846676,0.0001395,53.217,78.6425,92.7978,267.3174,0.00015695,2.211e-05,0.0,0 STARLINK-4095,1 53170U 22083AQ  23300.48413990  .00002211  00000-0  15695-3 0  9992,2 53170  53.2170  78.6425 0001395  92.7978 267.3174 15.08846676 70961,6917.86,95.437,540.69,538.76,0.0
53170.0,STARLINK-4095,PAYLOAD,2023-10-28 01:55:37,15.08850298,0.0001345,53.2173,75.9665,101.9902,258.1241,0.00012661,1.728e-05,0.0,0 STARLINK-4095,1 53170U 22083AQ  23301.08029557  .00001728  00000-0  12661-3 0  9993,2 53170  53.2173  75.9665 0001345 101.9902 258.1241 15.08850298 71683,6917.849,95.437,540.644,538.783,0.0
53170.0,STARLINK-4095,PAYLOAD,2023-10-28 13:03:20,15.0882425,0.0001445,53.2167,73.8847,74.9818,285.1334,-0.00021106,-3.644e-05,0.0,0 STARLINK-4095,1 53170U 22083AQ  23301.54399072 -.00003644  00000-0 -21106-3 0  9991,2 53170  53.2167  73.8847 0001445  74.9818 285.1334 15.08824250 71122,6917.929,95.439,540.793,538.794,0.0
53170.0,STARLINK-4095,PAYLOAD,2023-10-28 17:49:30,15.08829609,0.0001486,53.2171,72.993,79.1962,280.9197,-0.00012384,-2.258e-05,0.0,0 STARLINK-4095,1 53170U 22083AQ  23301.74270911 -.00002258  00000-0 -12384-3 0  9991,2 53170  53.2171  72.9930 0001486  79.1962 280.9197 15.08829609 71787,6917.912,95.438,540.805,538.749,0.0
53170.0,STARLINK-4095,PAYLOAD,2023-10-29 01:46:25,15.08841166,0.000154,53.218,71.5067,81.5557,278.5609,7.5075e-05,9.07e-06,0.0,0 STARLINK-4095,1 53170U 22083AQ  23302.07390484  .00000907  00000-0  75075-4 0  9990,2 53170  53.2180  71.5067 0001540  81.5557 278.5609 15.08841166 71830,6917.877,95.437,540.807,538.676,0.0
53170.0,STARLINK-4095,PAYLOAD,2023-10-29 12:54:06,15.08856434,0.0001266,53.2173,69.4235,78.6474,281.466,0.00028933,4.322e-05,0.0,0 STARLINK-4095,1 53170U 22083AQ  23302.53757714  .00004322  00000-0  28933-3 0  9999,2 53170  53.2173  69.4235 0001266  78.6474 281.4660 15.08856434 71907,6917.83,95.437,540.571,538.819,0.0
53170.0,STARLINK-4095,PAYLOAD,2023-10-29 14:29:29,15.08858202,0.0001605,53.2188,69.1262,77.205,282.9122,0.00037164,5.634e-05,0.0,0 STARLINK-4095,1 53170U 22083AQ  23302.60381757  .00005634  00000-0  37164-3 0  9990,2 53170  53.2188  69.1262 0001605  77.2050 282.9122 15.08858202 71287,6917.825,95.436,540.8,538.579,0.0
53170.0,STARLINK-4095,PAYLOAD,2023-10-29 17:40:16,15.08870222,0.0001512,53.2175,68.5324,73.501,286.6148,0.0012051,0.00018959,0.0,0 STARLINK-4095,1 53170U 22083AQ  23302.73629756  .00018959  00000-0  12051-2 0  9999,2 53170  53.2175  68.5324 0001512  73.5010 286.6148 15.08870222 71305,6917.788,95.436,540.699,538.607,0.0
53170.0,STARLINK-4095,PAYLOAD,2023-10-30 07:58:44,15.08847386,0.0001489,53.2179,65.857,79.9392,280.1768,0.00023261,3.417e-05,0.0,0 STARLINK-4095,1 53170U 22083AQ  23303.33246196  .00003417  00000-0  23261-3 0  9998,2 53170  53.2179  65.8570 0001489  79.9392 280.1768 15.08847386 72020,6917.858,95.437,540.753,538.693,0.0
53170.0,STARLINK-4095,PAYLOAD,2023-10-30 15:55:40,15.08829237,0.0001447,53.2176,64.3706,85.5206,274.5951,0.0013225,0.00020816,0.0,0 STARLINK-4095,1 53170U 22083AQ  23303.66366684  .00020816  00000-0  13225-2 0  9999,2 53170  53.2176  64.3706 0001447  85.5206 274.5951 15.08829237 72074,6917.913,95.438,540.779,538.777,0.0
53170.0,STARLINK-4095,PAYLOAD,2023-10-31 12:35:42,15.08836694,0.0001594,53.2176,60.5058,84.2212,275.8962,0.00085391,0.00013327,0.0,0 STARLINK-4095,1 53170U 22083AQ  23304.52479425  .00013327  00000-0  85391-3 0  9996,2 53170  53.2176  60.5058 0001594  84.2212 275.8962 15.08836694 72204,6917.89,95.438,540.858,538.653,0.0
53170.0,STARLINK-4095,PAYLOAD,2023-10-31 14:11:05,15.08842698,0.0001454,53.218,60.2054,100.5439,259.5717,0.00082259,0.00012829,0.0,0 STARLINK-4095,1 53170U 22083AQ  23304.59103231  .00012829  00000-0  82259-3 0  9998,2 53170  53.2180  60.2054 0001454 100.5439 259.5717 15.08842698 71588,6917.872,95.437,540.743,538.731,0.0
53170.0,STARLINK-4095,PAYLOAD,2023-10-31 17:21:51,15.08847927,0.0001513,53.2184,59.6101,101.1373,258.9789,0.00094236,0.00014745,0.0,0 STARLINK-4095,1 53170U 22083AQ  23304.72351172  .00014745  00000-0  94236-3 0  9999,2 53170  53.2184  59.6101 0001513 101.1373 258.9789 15.08847927 71602,6917.856,95.437,540.768,538.674,0.0
